{
  "type": "FeatureCollection",
  "features": [
    {
      "type": "Feature",
      "properties": {
        "norad_id": 34540,
        "name": "IRIDIUM 33 DEB",
        "group": "iridium-33-debris",
        "lat": -39.86060414214959,
        "lon": 127.3040481241335,
        "alt_km": 649.4107041804627,
        "timestamp": "2025-12-20T03:42:47.779165+00:00",
        "meta_object_name": "IRIDIUM 33 DEB",
        "meta_object_id": "1997-051JH",
        "meta_epoch": "2025-12-19T20:29:06.527328",
        "meta_mean_motion": 14.75455566,
        "meta_eccentricity": 0.0017502,
        "meta_inclination": 86.3106,
        "meta_ra_of_asc_node": 304.3534,
        "meta_arg_of_pericenter": 135.0105,
        "meta_mean_anomaly": 285.98,
        "meta_ephemeris_type": 0,
        "meta_classification_type": "U",
        "meta_norad_cat_id": 34540,
        "meta_element_set_no": 999,
        "meta_rev_at_epoch": 89126,
        "meta_bstar": 0.00097624,
        "meta_mean_motion_dot": 6.676e-05,
        "meta_mean_motion_ddot": 0,
        "tle_line1": "1 34540U 97051JH  25353.85354777  .00006676  00000+0  97624-3 0  9997",
        "tle_line2": "2 34540  86.3106 304.3534 0017502 135.0105 285.9800 14.75455566891260"
      },
      "geometry": {
        "type": "Point",
        "coordinates": [
          127.3040481241335,
          -39.86060414214959
        ]
      }
    },
    {
      "type": "Feature",
      "properties": {
        "norad_id": 34648,
        "name": "IRIDIUM 33 DEB",
        "group": "iridium-33-debris",
        "lat": 73.73351302179225,
        "lon": 86.45802044810793,
        "alt_km": 975.259563253574,
        "timestamp": "2025-12-20T03:42:47.779176+00:00",
        "meta_object_name": "IRIDIUM 33 DEB",
        "meta_object_id": "1997-051JZ",
        "meta_epoch": "2025-12-18T13:46:37.352352",
        "meta_mean_motion": 14.1166623,
        "meta_eccentricity": 0.01808845,
        "meta_inclination": 86.3904,
        "meta_ra_of_asc_node": 279.59,
        "meta_arg_of_pericenter": 280.6676,
        "meta_mean_anomaly": 77.4184,
        "meta_ephemeris_type": 0,
        "meta_classification_type": "U",
        "meta_norad_cat_id": 34648,
        "meta_element_set_no": 999,
        "meta_rev_at_epoch": 85043,
        "meta_bstar": 0.0055375481,
        "meta_mean_motion_dot": 0.00011772,
        "meta_mean_motion_ddot": 0,
        "tle_line1": "1 34648U 97051JZ  25352.57404343  .00011772  00000+0  55375-2 0  9998",
        "tle_line2": "2 34648  86.3904 279.5900 0180884 280.6676  77.4184 14.11666230850434"
      },
      "geometry": {
        "type": "Point",
        "coordinates": [
          86.45802044810793,
          73.73351302179225
        ]
      }
    },
    {
      "type": "Feature",
      "properties": {
        "norad_id": 34651,
        "name": "IRIDIUM 33 DEB",
        "group": "iridium-33-debris",
        "lat": -4.4218257159271905,
        "lon": -42.28890652755095,
        "alt_km": 706.9933965776536,
        "timestamp": "2025-12-20T03:42:47.779186+00:00",
        "meta_object_name": "IRIDIUM 33 DEB",
        "meta_object_id": "1997-051KC",
        "meta_epoch": "2025-12-19T16:44:48.420096",
        "meta_mean_motion": 14.25922062,
        "meta_eccentricity": 0.0142246,
        "meta_inclination": 86.2827,
        "meta_ra_of_asc_node": 137.6175,
        "meta_arg_of_pericenter": 181.9677,
        "meta_mean_anomaly": 178.0974,
        "meta_ephemeris_type": 0,
        "meta_classification_type": "U",
        "meta_norad_cat_id": 34651,
        "meta_element_set_no": 999,
        "meta_rev_at_epoch": 85995,
        "meta_bstar": 0.0022062,
        "meta_mean_motion_dot": 5.865e-05,
        "meta_mean_motion_ddot": 0,
        "tle_line1": "1 34651U 97051KC  25353.69778264  .00005865  00000+0  22062-2 0  9995",
        "tle_line2": "2 34651  86.2827 137.6175 0142246 181.9677 178.0974 14.25922062859957"
      },
      "geometry": {
        "type": "Point",
        "coordinates": [
          -42.28890652755095,
          -4.4218257159271905
        ]
      }
    },
    {
      "type": "Feature",
      "properties": {
        "norad_id": 34652,
        "name": "IRIDIUM 33 DEB",
        "group": "iridium-33-debris",
        "lat": 59.3121559017409,
        "lon": 150.4924129674313,
        "alt_km": 696.4167650672534,
        "timestamp": "2025-12-20T03:42:47.779197+00:00",
        "meta_object_name": "IRIDIUM 33 DEB",
        "meta_object_id": "1997-051KD",
        "meta_epoch": "2025-12-19T17:51:26.256096",
        "meta_mean_motion": 14.62117993,
        "meta_eccentricity": 0.0025528,
        "meta_inclination": 86.331,
        "meta_ra_of_asc_node": 336.8822,
        "meta_arg_of_pericenter": 272.5866,
        "meta_mean_anomaly": 207.7976,
        "meta_ephemeris_type": 0,
        "meta_classification_type": "U",
        "meta_norad_cat_id": 34652,
        "meta_element_set_no": 999,
        "meta_rev_at_epoch": 88586,
        "meta_bstar": 0.00063187,
        "meta_mean_motion_dot": 3.211e-05,
        "meta_mean_motion_ddot": 0,
        "tle_line1": "1 34652U 97051KD  25353.74405389  .00003211  00000+0  63187-3 0  9994",
        "tle_line2": "2 34652  86.3310 336.8822 0025528 272.5866 207.7976 14.62117993885869"
      },
      "geometry": {
        "type": "Point",
        "coordinates": [
          150.4924129674313,
          59.3121559017409
        ]
      }
    },
    {
      "type": "Feature",
      "properties": {
        "norad_id": 34690,
        "name": "IRIDIUM 33 DEB",
        "group": "iridium-33-debris",
        "lat": 22.522871721384575,
        "lon": -147.73618463319087,
        "alt_km": 715.0694651588728,
        "timestamp": "2025-12-20T03:42:47.779207+00:00",
        "meta_object_name": "IRIDIUM 33 DEB",
        "meta_object_id": "1997-051KM",
        "meta_epoch": "2025-12-19T02:30:15.635232",
        "meta_mean_motion": 14.55118004,
        "meta_eccentricity": 0.00100928,
        "meta_inclination": 86.3778,
        "meta_ra_of_asc_node": 34.2255,
        "meta_arg_of_pericenter": 8.472,
        "meta_mean_anomaly": 50.0408,
        "meta_ephemeris_type": 0,
        "meta_classification_type": "U",
        "meta_norad_cat_id": 34690,
        "meta_element_set_no": 999,
        "meta_rev_at_epoch": 88187,
        "meta_bstar": 0.00032814485,
        "meta_mean_motion_dot": 1.438e-05,
        "meta_mean_motion_ddot": 0,
        "tle_line1": "1 34690U 97051KM  25353.10434763  .00001438  00000+0  32814-3 0  9996",
        "tle_line2": "2 34690  86.3778  34.2255 0010092   8.4720  50.0408 14.55118004881875"
      },
      "geometry": {
        "type": "Point",
        "coordinates": [
          -147.73618463319087,
          22.522871721384575
        ]
      }
    },
    {
      "type": "Feature",
      "properties": {
        "norad_id": 34693,
        "name": "IRIDIUM 33 DEB",
        "group": "iridium-33-debris",
        "lat": 10.292683483211365,
        "lon": -59.19140904811591,
        "alt_km": 471.4334766948141,
        "timestamp": "2025-12-20T03:42:47.779217+00:00",
        "meta_object_name": "IRIDIUM 33 DEB",
        "meta_object_id": "1997-051KQ",
        "meta_epoch": "2025-12-19T13:46:37.215840",
        "meta_mean_motion": 15.29511324,
        "meta_eccentricity": 0.0011988,
        "meta_inclination": 86.3048,
        "meta_ra_of_asc_node": 300.4253,
        "meta_arg_of_pericenter": 40.4179,
        "meta_mean_anomaly": 14.8235,
        "meta_ephemeris_type": 0,
        "meta_classification_type": "U",
        "meta_norad_cat_id": 34693,
        "meta_element_set_no": 999,
        "meta_rev_at_epoch": 89019,
        "meta_bstar": 0.003017,
        "meta_mean_motion_dot": 0.00087318,
        "meta_mean_motion_ddot": 0,
        "tle_line1": "1 34693U 97051KQ  25353.57404185  .00087318  00000+0  30170-2 0  9998",
        "tle_line2": "2 34693  86.3048 300.4253 0011988  40.4179  14.8235 15.29511324890198"
      },
      "geometry": {
        "type": "Point",
        "coordinates": [
          -59.19140904811591,
          10.292683483211365
        ]
      }
    },
    {
      "type": "Feature",
      "properties": {
        "norad_id": 34696,
        "name": "IRIDIUM 33 DEB",
        "group": "iridium-33-debris",
        "lat": -27.939933494482908,
        "lon": -153.8997075199106,
        "alt_km": 659.6500541168798,
        "timestamp": "2025-12-20T03:42:47.779229+00:00",
        "meta_object_name": "IRIDIUM 33 DEB",
        "meta_object_id": "1997-051KT",
        "meta_epoch": "2025-12-19T02:26:16.937952",
        "meta_mean_motion": 14.65392793,
        "meta_eccentricity": 0.00738562,
        "meta_inclination": 86.184,
        "meta_ra_of_asc_node": 24.5618,
        "meta_arg_of_pericenter": 146.0479,
        "meta_mean_anomaly": 268.8933,
        "meta_ephemeris_type": 0,
        "meta_classification_type": "U",
        "meta_norad_cat_id": 34696,
        "meta_element_set_no": 999,
        "meta_rev_at_epoch": 86766,
        "meta_bstar": 0.0030854988,
        "meta_mean_motion_dot": 0.00017409,
        "meta_mean_motion_ddot": 0,
        "tle_line1": "1 34696U 97051KT  25353.10158493  .00017409  00000+0  30855-2 0  9992",
        "tle_line2": "2 34696  86.1840  24.5618 0073856 146.0479 268.8933 14.65392793867664"
      },
      "geometry": {
        "type": "Point",
        "coordinates": [
          -153.8997075199106,
          -27.939933494482908
        ]
      }
    }
  ]
}